H1 CPF  1  HTS 2022  1 13 12  5131 larets           NONE
H2  0304206 5557    27944 2022 01 13  0  0  0 2022 01 18  0  0  0   180 1 1  0 0 0
H5  0.0560 
H9 
10 0 59595  82440.00000  0   -1115388.149     278982.329   -6981040.044
10 0 59595  82620.00000  0    -176904.841    1262711.671   -6957889.074
10 0 59595  82800.00000  0     792851.037    2175899.958   -6682240.101
10 0 59595  82980.00000  0    1756616.722    2985222.470   -6163814.588
10 0 59595  83160.00000  0    2676420.779    3661966.420   -5421085.879
10 0 59595  83340.00000  0    3515057.499    4183063.204   -4480697.882
10 0 59595  83520.00000  0    4237591.861    4531914.451   -3376594.485
10 0 59595  83700.00000  0    4812839.579    4698973.964   -2148861.358
10 0 59595  83880.00000  0    5214749.815    4682047.403    -842303.592
10 0 59595  84060.00000  0    5423618.538    4486286.816     495195.266
10 0 59595  84240.00000  0    5427058.538    4123871.457    1814468.289
10 0 59595  84420.00000  0    5220675.718    3613385.667    3066934.817
10 0 59595  84600.00000  0    4808403.059    2978917.767    4206462.177
10 0 59595  84780.00000  0    4202468.523    2248930.135    5191122.574
10 0 59595  84960.00000  0    3423008.633    1454966.864    5984765.759
10 0 59595  85140.00000  0    2497344.978     630267.017    6558348.328
10 0 59595  85320.00000  0    1458971.673    -191648.343    6890966.030
10 0 59595  85500.00000  0     346303.329    -978347.074    6970581.038
10 0 59595  85680.00000  0    -798776.519   -1699772.374    6794426.991
10 0 59595  85860.00000  0   -1932509.493   -2329394.949    6369080.244
10 0 59595  86040.00000  0   -3010938.501   -2845188.974    5710206.916
10 0 59595  86220.00000  0   -3991620.204   -3230408.007    4842006.148
10 0 59596      0.00000  0   -4835321.326   -3474136.640    3796338.165
10 0 59596    180.00000  0   -5507614.160   -3571588.869    2611562.486
10 0 59596    360.00000  0   -5980309.589   -3524146.376    1331130.482
10 0 59596    540.00000  0   -6232661.280   -3339134.208       1969.844
10 0 59596    720.00000  0   -6252274.134   -3029339.123   -1327272.310
10 0 59596    900.00000  0   -6035670.385   -2612297.713   -2608052.476
10 0 59596   1080.00000  0   -5588480.600   -2109391.806   -3793733.169
10 0 59596   1260.00000  0   -4925263.759   -1544806.004   -4841283.472
10 0 59596   1440.00000  0   -4068975.394    -944402.056   -5712814.662
10 0 59596   1620.00000  0   -3050116.000    -334564.797   -6376898.609
10 0 59596   1800.00000  0   -1905606.533     258926.476   -6809629.672
10 0 59596   1980.00000  0    -677443.228     811952.744   -6995413.767
10 0 59596   2160.00000  0     588817.474    1303001.939   -6927478.208
10 0 59596   2340.00000  0    1845699.157    1713981.626   -6608106.019
10 0 59596   2520.00000  0    3045539.691    2030876.782   -6048591.064
10 0 59596   2700.00000  0    4142268.420    2244231.961   -5268896.445
10 0 59596   2880.00000  0    5093169.174    2349440.644   -4297023.067
10 0 59596   3060.00000  0    5860576.424    2346832.023   -3168086.413
10 0 59596   3240.00000  0    6413429.256    2241544.816   -1923111.034
10 0 59596   3420.00000  0    6728611.873    2043188.779    -607569.094
10 0 59596   3600.00000  0    6791999.345    1765301.233     730294.383
10 0 59596   3780.00000  0    6599139.751    1424620.901    2041277.953
10 0 59596   3960.00000  0    6155534.670    1040217.563    3277097.948
10 0 59596   4140.00000  0    5476490.787     632519.802    4392238.493
10 0 59596   4320.00000  0    4586548.313     222297.193    5345680.588
10 0 59596   4500.00000  0    3518526.860    -170347.185    6102435.758
10 0 59596   4680.00000  0    2312237.398    -526923.762    6634824.970
10 0 59596   4860.00000  0    1012934.683    -831395.125    6923461.830
10 0 59596   5040.00000  0    -330427.169   -1070876.806    6957924.847
10 0 59596   5220.00000  0   -1667068.522   -1236171.957    6737098.575
10 0 59596   5400.00000  0   -2946314.204   -1322120.670    6269186.595
10 0 59596   5580.00000  0   -4119518.844   -1327751.954    5571408.980
10 0 59596   5760.00000  0   -5141937.102   -1256240.519    4669388.807
10 0 59596   5940.00000  0   -5974465.194   -1114669.759    3596226.268
10 0 59596   6120.00000  0   -6585175.160    -913607.305    2391289.961
10 0 59596   6300.00000  0   -6950582.113    -666514.301    1098769.845
10 0 59596   6480.00000  0   -7056584.448    -389016.510    -233969.772
10 0 59596   6660.00000  0   -6899016.299     -98073.641   -1558166.743
10 0 59596   6840.00000  0   -6483787.986     188909.626   -2825483.296
10 0 59596   7020.00000  0   -5826617.825     454982.400   -3989793.731
10 0 59596   7200.00000  0   -4952369.060     684512.859   -5008867.125
10 0 59596   7380.00000  0   -3894034.658     863975.337   -5845867.981
10 0 59596   7560.00000  0   -2691434.045     982622.064   -6470628.024
10 0 59596   7740.00000  0   -1389687.856    1033011.415   -6860659.615
10 0 59596   7920.00000  0     -37532.995    1011378.260   -7001896.593
10 0 59596   8100.00000  0    1314461.625     917833.394   -6889154.938
10 0 59596   8280.00000  0    2615732.843     756386.464   -6526322.107
10 0 59596   8460.00000  0    3817573.980     534790.347   -5926256.887
10 0 59596   8640.00000  0    4874936.802     264209.385   -5110395.475
10 0 59596   8820.00000  0    5748133.472     -41280.415   -4108069.636
10 0 59596   9000.00000  0    6404381.490    -365344.005   -2955532.149
10 0 59596   9180.00000  0    6819118.610    -690171.080   -1694704.099
10 0 59596   9360.00000  0    6977021.827    -997357.536    -371671.753
10 0 59596   9540.00000  0    6872662.747   -1268840.735     965016.670
10 0 59596   9720.00000  0    6510755.002   -1487841.654    2266183.443
10 0 59596   9900.00000  0    5905968.883   -1639762.149    3483901.436
10 0 59596  10080.00000  0    5082314.897   -1712984.402    4573328.259
10 0 59596  10260.00000  0    4072135.297   -1699531.604    5494403.984
10 0 59596  10440.00000  0    2914763.933   -1595552.287    6213343.827
10 0 59596  10620.00000  0    1654922.437   -1401609.598    6703869.010
10 0 59596  10800.00000  0     340934.271   -1122764.908    6948137.252
10 0 59596  10980.00000  0    -977168.481    -768450.952    6937353.854
10 0 59596  11160.00000  0   -2249567.807    -352141.826    6672053.931
10 0 59596  11340.00000  0   -3428547.591     109167.487    6162062.792
10 0 59596  11520.00000  0   -4470291.635     595654.645    5426139.024
10 0 59596  11700.00000  0   -5336535.107    1085511.182    4491301.462
10 0 59596  11880.00000  0   -5996005.118    1555900.900    3391852.277
10 0 59596  12060.00000  0   -6425588.185    1983995.891    2168123.697
10 0 59596  12240.00000  0   -6611176.272    2348042.646     864990.453
10 0 59596  12420.00000  0   -6548149.666    2628407.607    -469803.942
10 0 59596  12600.00000  0   -6241464.466    2808545.835   -1787437.029
10 0 59596  12780.00000  0   -5705344.516    2875843.423   -3039830.955
10 0 59596  12960.00000  0   -4962594.688    2822291.871   -4181431.666
10 0 59596  13140.00000  0   -4043578.452    2644959.101   -5170860.961
10 0 59596  13320.00000  0   -2984924.747    2346241.406   -5972376.827
10 0 59596  13500.00000  0   -1828037.037    1933892.711   -6557099.886
10 0 59596  13680.00000  0    -617467.811    1420832.815   -6903982.906
10 0 59596  13860.00000  0     600774.663     824744.546   -7000501.293
10 0 59596  14040.00000  0    1780929.487     167478.005   -6843068.919
10 0 59596  14220.00000  0    2879159.425    -525725.968   -6437174.682
10 0 59596  14400.00000  0    3855148.684   -1227173.561   -5797227.885
10 0 59596  14580.00000  0    4673576.648   -1907790.080   -4946115.045
10 0 59596  14760.00000  0    5305425.688   -2538300.374   -3914467.672
10 0 59596  14940.00000  0    5729070.276   -3090475.552   -2739637.437
10 0 59596  15120.00000  0    5931095.624   -3538391.237   -1464395.580
10 0 59596  15300.00000  0    5906795.935   -3859637.782    -135389.843
10 0 59596  15480.00000  0    5660316.543   -4036419.659    1198585.742
10 0 59596  15660.00000  0    5204420.131   -4056481.829    2488439.138
10 0 59596  15840.00000  0    4559876.996   -3913802.029    3686659.665
10 0 59596  16020.00000  0    3754516.316   -3609010.440    4749130.614
10 0 59596  16200.00000  0    2821991.195   -3149519.579    5636798.402
10 0 59596  16380.00000  0    1800321.787   -2549354.570    6317123.096
10 0 59596  16560.00000  0     730296.801   -1828698.849    6765257.130
10 0 59596  16740.00000  0    -346191.662   -1013181.918    6964918.846
10 0 59596  16920.00000  0   -1387807.691    -132938.908    6908945.641
10 0 59596  17100.00000  0   -2355365.400     778521.915    6599522.145
10 0 59596  17280.00000  0   -3213306.444    1685604.544    6048084.191
10 0 59596  17460.00000  0   -3931014.195    2552020.172    5274903.129
10 0 59596  17640.00000  0   -4483923.719    3342246.291    4308359.359
10 0 59596  17820.00000  0   -4854385.633    4022994.474    3183915.458
10 0 59596  18000.00000  0   -5032246.281    4564624.053    1942819.038
10 0 59596  18180.00000  0   -5015116.680    4942441.112     630576.984
10 0 59596  18360.00000  0   -4808315.775    5137811.560    -704744.193
10 0 59596  18540.00000  0   -4424493.669    5139033.258   -2014319.104
10 0 59596  18720.00000  0   -3882946.161    4941921.397   -3250389.377
10 0 59596  18900.00000  0   -3208665.176    4550075.351   -4368024.852
10 0 59596  19080.00000  0   -2431180.473    3974822.448   -5326742.584
10 0 59596  19260.00000  0   -1583262.456    3234858.660   -6091925.070
10 0 59596  19440.00000  0    -699547.160    2355609.058   -6636007.371
10 0 59596  19620.00000  0     184861.443    1368333.519   -6939399.525
10 0 59596  19800.00000  0    1035753.913     309021.201   -6991130.983
10 0 59596  19980.00000  0    1821103.984    -782892.392   -6789217.960
10 0 59596  20160.00000  0    2512245.917   -1865953.320   -6340743.235
10 0 59596  20340.00000  0    3084906.248   -2898219.568   -5661651.383
99
